    CK17E040  2017 04 23.5393  0.491627  1.001502   87.0755  223.1124   88.1258  20200319  17.0  4.0  C/2017 E4 (Lovejoy)                                      MPC105239
    CK17E050  2016 06 10.5644  1.787870  0.995381  306.8838  206.2878  122.6614  20200319  13.0  4.0  C/2017 E5 (Lemmon)                                       MPC105239
    CK17F010  2017 11 30.5900  4.497563  1.004223   64.7878  158.7792  146.4706  20200319  10.5  4.0  C/2017 F1 (Lemmon)                                       MPC111769
    CK17F020  2017 11 27.7956  6.931600  1.004540  135.0483   38.6698   42.5104  20200319   7.5  4.0  C/2017 F2 (PANSTARRS)                                    MPC114598
    PK17G010  2016 04 28.5747  2.528616  0.653279  224.5798  249.6278    4.7742  20200319  13.5  4.0  P/2017 G1 (PANSTARRS)                                    MPC104794
    PK17G020  2017 06 12.2465  2.838424  0.648642  105.6021   79.7960   47.9511  20200319  13.0  4.0  P/2017 G2 (PANSTARRS)                                    MPC108595
    CK17G030  2017 04 15.4343  2.591372  0.991555   73.1501  279.4802  159.0587  20200319  14.0  4.0  C/2017 G3 (PANSTARRS)                                    MPC109144
    CK17K010  2018 03 16.8973  7.288717  1.001327    4.3609  225.6499  154.0093  20200319   7.0  4.0  C/2017 K1 (PANSTARRS)                                    MPC115882
    CK17K020  2022 12 20.0573  1.800298  1.000408  236.1490   88.2673   87.5424  20200319   1.5  4.0  C/2017 K2 (PANSTARRS)                                    MPC119995
    PK17K030  2017 05 31.6949  2.338440  0.580908  253.4219  354.3018    4.2750  20200319  14.5  4.0  P/2017 K3 (Gasparovic)                                   MPC106346
    CK17K040  2018 01  8.3130  2.649372  0.906746   15.1932  298.8714   16.6799  20200319  10.0  4.0  C/2017 K4 (ATLAS)                                        MPC114598
    CK17K050  2020 03 24.2230  7.678671  1.006436  171.8395  102.3735   82.2635  20200319   5.0  4.0  C/2017 K5 (PANSTARRS)                                    MPC119995
    CK17K060  2018 01  3.1976  2.000099  0.998114  303.7769   85.0527   57.2546  20200319  11.0  4.0  C/2017 K6 (Jacques)                                      MPC114599
    CK17M030  2017 04 28.2161  4.658375  0.972260  110.3602    7.0045   77.5296  20200319  10.5  4.0  C/2017 M3 (PANSTARRS)                                    MPC110083
    CK17M040  2019 01 17.8717  3.251536  1.001160  167.5617   65.8640  105.6441  20200319   6.0  4.0  C/2017 M4 (ATLAS)                                        MPC118093
    CK17M050  2018 06  3.7288  5.991395  1.004989   92.7190  216.2738   15.8822  20200319   6.5  4.0  C/2017 M5 (TOTAS)                                        MPC118841
    CK17O010  2017 10 14.7239  1.496596  0.995845   20.8614   25.7821   39.8733  20200319  11.0  4.0  C/2017 O1 (ASASSN)                                       MPC114599
    PK17P010  2018 06 17.8074  5.440184  0.310246  122.1820  221.4012    7.6992  20200319  10.0  4.0  P/2017 P1 (PANSTARRS)                                    MPC114599
    CK17P020  2017 12  6.6765  2.463356  0.998679  132.3075  165.5130   50.0622  20200319  10.0  4.0  C/2017 P2 (PANSTARRS)                                    MPC114599
    PK17R010  2017 04  9.2748  3.326476  0.195521  178.5125  143.6240    2.5735  20200319  13.5  4.0  P/2017 R1 (PANSTARRS)                                    MPC114599
    CK17S020  2017 08 29.4181  3.612105  0.823819  305.9365   62.4179   12.6807  20200319  13.0  4.0  C/2017 S2 (PANSTARRS)                                    MPC108595
    CK17S030  2018 08 15.9608  0.208418  1.000048  255.8396  171.1108   99.0890  20200319  11.0  4.0  C/2017 S3 (PANSTARRS)                                    MPC114599
    PK17S050  2017 07 28.1883  2.174896  0.313741   99.8344  252.3866   11.8503  20200319  14.0  4.0  P/2017 S5 (ATLAS)                                        MPC114599
    CK17S060  2018 02 26.7070  1.541801  1.000740  134.7945  131.0508  152.8679  20200319  12.5  4.0  C/2017 S6 (Catalina)                                     MPC109591
    CK17S070  2017 05 26.1121  7.609938  1.001363  187.6367  262.7926  124.2330  20200319   7.0  4.0  C/2017 S7 (Lemmon)                                       MPC114599
    PK17S080  2018 01 28.2477  1.687100  0.392732  254.7057  191.7347   29.8255  20200319  16.0  4.0  P/2017 S8 (PANSTARRS)                                    MPC114599
    PK17S090  2017 07 23.2288  2.192679  0.304857  237.7400  146.2167   14.1432  20200319  17.0  4.0  P/2017 S9 (PANSTARRS)                                    MPC107050
    CK17T010  2018 02 21.4946  0.581143  1.000020   96.9034  102.3175   96.8371  20200319  14.5  4.0  C/2017 T1 (Heinze)                                       MPC114600
    CK17T020  2020 05  4.9517  1.615094  0.999646   92.9943   64.3781   57.2306  20200319   5.0  4.0  C/2017 T2 (PANSTARRS)                                    MPC119996
    CK17T030  2018 07 19.0767  0.824629  0.999437  246.8343  230.0671   88.0299  20200319  10.0  4.0  C/2017 T3 (ATLAS)                                        MPC114600
    PK17T13W  2018 06 20.8631  2.078001  0.709395  120.0606  322.2840   44.8462  20200319  15.0  2.0  P/2017 TW13 (Lemmon)                                     MPC115882
    CK17U020  2017 08 28.2903  6.702759  0.998628  147.7626  149.7131   95.3958  20200319   9.0  4.0  C/2017 U2 (Fuls)                                         MPC114600
    PK17U030  2019 04 19.2156  4.444170  0.099013  297.1850  165.1108   15.9118  20200319  11.0  4.0  P/2017 U3 (PANSTARRS)                                    MPC114600
    CK17U040  2018 09 24.3375  7.722978  1.003525  159.0892  245.9503  158.2228  20200319   7.0  4.0  C/2017 U4 (PANSTARRS)                                    MPC114600
    CK17U050  2017 12 18.4976  4.323955  0.743863  262.0778  163.0879   18.9659  20200319  12.0  4.0  C/2017 U5 (PANSTARRS)                                    MPC114600
    CK17U070  2019 09 12.3018  6.418021  1.002533  326.1175  276.2341  142.6324  20200319   8.3  2.0  C/2017 U7                                                MPC118841
    CK17W020  2017 11  1.6791  3.955672  0.711003  169.1150  312.8330   98.1984  20200319  11.0  4.0  C/2017 W2 (Leonard)                                      MPC114600
    PK17W030  2018 03  1.3934  3.851869  0.508745  327.4579  210.4620   18.1930  20200319  10.5  4.0  P/2017 W3 (Gibbs)                                        MPC114601
    CK17X010  2018 06 15.5202  4.666816  0.851780  283.2655  251.1293   31.3057  20200319  10.0  4.0  C/2017 X1 (PANSTARRS)                                    MPC115883
    CK17Y010  2017 08 31.1767  3.715799  0.998183  134.3732  307.5248   55.2630  20200319  11.5  4.0  C/2017 Y1 (PANSTARRS)                                    MPC117069
    CK17Y020  2020 11  4.4600  4.632380  1.000471  147.8342   65.9730  128.4300  20200319  15.0  4.0  C/2017 Y2 (PANSTARRS)                                    MPC118841
    PK17Y030  2018 02 11.0757  1.276997  0.870382   67.5683  153.8621   27.5716  20200319  16.5  4.0  P/2017 Y3 (Leonard)                                      MPC111770
    CK18A010  2017 10 20.2871  2.417726  0.903805   96.3269  336.6334   53.5885  20200319  12.5  4.0  C/2018 A1 (PANSTARRS)                                    MPC114601
    CK18A030  2019 01 12.7857  3.276275  0.993464   86.4164  194.2913  139.5552  20200319   8.5  4.0  C/2018 A3 (ATLAS)                                        MPC119996
    CK18A040  2018 05 18.6040  2.402041  0.803536  356.0931   97.6348    3.1482  20200319  14.0  4.0  C/2018 A4 (PANSTARRS)                                    MPC114601
    PK18A050  2017 09 23.3479  2.694074  0.522270  359.6316   87.8307   23.5779  20200319  15.0  4.0  P/2018 A5 (PANSTARRS)                                    MPC109147
    CK18A060  2019 07 14.3158  3.017969  0.803391  264.5427  340.3846   76.9563  20200319   9.0  4.0  C/2018 A6 (Gibbs)                                        MPC119996
    CK18B010  2018 03 29.9411  5.115443  1.001914   68.3193  133.1880  162.4210  20200319   9.0  4.0  C/2018 B1 (Lemmon)                                       MPC118841
    PK18C010  2018 02 27.6955  2.621249  0.535541  235.3742  270.3901    5.1377  20200319  13.5  4.0  P/2018 C1 (Lemmon-Read)                                  MPC114601
    CK18C020  2018 06  2.0180  1.956695  1.001049  134.1101   91.1390   34.4583  20200319  13.0  4.0  C/2018 C2 (Lemmon)                                       MPC114601
    CK18D04O  2019 08 18.3775  2.405908  0.906761  175.9639  251.1318  160.4741  20200319  11.0  4.0  C/2018 DO4 (Lemmon)                                      MPEC 2020-AA5
    CK18E010  2018 04 17.2593  2.704528  0.949994  299.4445  146.8494   72.5021  20200319  10.5  4.0  C/2018 E1 (ATLAS)                                        MPC114602
    CK18E020  2017 12 23.9034  3.921420  0.998863  277.4825   67.2009   97.7332  20200319  10.5  4.0  C/2018 E2 (Barros)                                       MPC114602
    CK18E04N  2018 06  7.5646  1.448749  0.920925   35.0122  136.1540   81.5888  20200319  15.0  4.0  C/2018 EN4 (NEOWISE)                                     MPC114602
    CK18E09F  2018 05 23.0506  1.556995  0.997400   72.6208  172.5764   84.6670  20200319  18.0  2.0  C/2018 EF9 (Lemmon)                                      MPC114602
    CK18F010  2018 12 14.0213  2.993426  0.990096   71.6380  177.2765   46.0752  20200319  11.5  4.0  C/2018 F1 (Grauer)                                       MPC115883
    CK18F030  2017 08 15.2313  2.483172  1.000000  293.0113  173.0311  105.5348            13.0  4.0  C/2018 F3 (Johnson)                                      MPC110084
    CK18F040  2019 12  4.1153  3.439868  1.001473  263.2168   26.5080   78.0983  20200319  11.9  2.0  C/2018 F4 (PANSTARRS)                                    MPC119996
    PK18H020  2018 01 22.9760  2.023240  0.539866  120.0365   68.4369    7.3882  20200319  16.6  2.0  P/2018 H2 (PANSTARRS)                                    MPC114602
